{"type": "FeatureCollection", "features": [ {"type": "Feature", "properties": {"norad_id": 31150, "name": "FENGYUN 1C DEB", "group": "fengyun-1c-debris", "lat": 33.542202962220884, "lon": 0.6557629028529561, "alt_km": 848.5578984023578, "timestamp": "2025-12-24T03:53:29.927743+00:00", "meta": {"OBJECT_NAME": "FENGYUN 1C DEB", "OBJECT_ID": "1999-025BHC", "EPOCH": "2025-12-20T12:03:49.060224", "MEAN_MOTION": 14.12737693, "ECCENTRICITY": 0.00156358, "INCLINATION": 98.6853, "RA_OF_ASC_NODE": 2.9234, "ARG_OF_PERICENTER": 138.1428, "MEAN_ANOMALY": 14.8315, "EPHEMERIS_TYPE": 0, "CLASSIFICATION_TYPE": "U", "NORAD_CAT_ID": 31150, "ELEMENT_SET_NO": 999, "REV_AT_EPOCH": 96406, "BSTAR": 0.00012292185, "MEAN_MOTION_DOT": 1.86e-06, "MEAN_MOTION_DDOT": 0}, "tle": {"line1": "1 31150U 99025BHC 25354.50265116  .00000186  00000+0  12292-3 0  9993", "line2": "2 31150  98.6853   2.9234 0015635 138.1428  14.8315 14.12737693964068"}}, "geometry": {"type": "Point", "coordinates": [0.6557629028529561, 33.542202962220884]}}, {"type": "Feature", "properties": {"norad_id": 31151, "name": "FENGYUN 1C DEB", "group": "fengyun-1c-debris", "lat": 14.763209194954337, "lon": 1.6436813095106793, "alt_km": 768.8449611107171, "timestamp": "2025-12-24T03:53:29.927754+00:00", "meta": {"OBJECT_NAME": "FENGYUN 1C DEB", "OBJECT_ID": "1999-025BHD", "EPOCH": "2025-12-22T11:24:18.125856", "MEAN_MOTION": 14.25906921, "ECCENTRICITY": 0.00563274, "INCLINATION": 99.1351, "RA_OF_ASC_NODE": 2.3164, "ARG_OF_PERICENTER": 357.1221, "MEAN_ANOMALY": 2.9626, "EPHEMERIS_TYPE": 0, "CLASSIFICATION_TYPE": "U", "NORAD_CAT_ID": 31151, "ELEMENT_SET_NO": 999, "REV_AT_EPOCH": 96113, "BSTAR": 0.0023357835, "MEAN_MOTION_DOT": 5.613e-05, "MEAN_MOTION_DDOT": 0}, "tle": {"line1": "1 31151U 99025BHD 25356.47520979  .00005613  00000+0  23358-2 0  9997", "line2": "2 31151  99.1351   2.3164 0056327 357.1221   2.9626 14.25906921961135"}}, "geometry": {"type": "Point", "coordinates": [1.6436813095106793, 14.763209194954337]}}, {"type": "Feature", "properties": {"norad_id": 31152, "name": "FENGYUN 1C DEB", "group": "fengyun-1c-debris", "lat": 31.07003316353462, "lon": 169.6067516316574, "alt_km": 849.6149423071192, "timestamp": "2025-12-24T03:53:29.927764+00:00", "meta": {"OBJECT_NAME": "FENGYUN 1C DEB", "OBJECT_ID": "1999-025BHE", "EPOCH": "2025-12-23T17:59:51.397152", "MEAN_MOTION": 14.35857228, "ECCENTRICITY": 0.012951, "INCLINATION": 98.4151, "RA_OF_ASC_NODE": 344.0871, "ARG_OF_PERICENTER": 0.617, "MEAN_ANOMALY": 177.3374, "EPHEMERIS_TYPE": 0, "CLASSIFICATION_TYPE": "U", "NORAD_CAT_ID": 31152, "ELEMENT_SET_NO": 999, "REV_AT_EPOCH": 98206, "BSTAR": 0.00011348, "MEAN_MOTION_DOT": 3.15e-06, "MEAN_MOTION_DDOT": 0}, "tle": {"line1": "1 31152U 99025BHE 25357.74990043  .00000315  00000+0  11348-3 0  9993", "line2": "2 31152  98.4151 344.0871 0129510   0.6170 177.3374 14.35857228982063"}}, "geometry": {"type": "Point", "coordinates": [169.6067516316574, 31.07003316353462]}}, {"type": "Feature", "properties": {"norad_id": 31155, "name": "FENGYUN 1C DEB", "group": "fengyun-1c-debris", "lat": 8.07439619844866, "lon": 65.82061771369308, "alt_km": 815.7459451139448, "timestamp": "2025-12-24T03:53:29.927774+00:00", "meta": {"OBJECT_NAME": "FENGYUN 1C DEB", "OBJECT_ID": "1999-025BHH", "EPOCH": "2025-12-23T03:58:59.246400", "MEAN_MOTION": 14.08365541, "ECCENTRICITY": 0.00886156, "INCLINATION": 99.0413, "RA_OF_ASC_NODE": 66.1168, "ARG_OF_PERICENTER": 333.3544, "MEAN_ANOMALY": 26.3085, "EPHEMERIS_TYPE": 0, "CLASSIFICATION_TYPE": "U", "NORAD_CAT_ID": 31155, "ELEMENT_SET_NO": 999, "REV_AT_EPOCH": 95734, "BSTAR": 0.0010880639, "MEAN_MOTION_DOT": 1.885e-05, "MEAN_MOTION_DDOT": 0}, "tle": {"line1": "1 31155U 99025BHH 25357.16596350  .00001885  00000+0  10881-2 0  9998", "line2": "2 31155  99.0413  66.1168 0088615 333.3544  26.3085 14.08365541957343"}}, "geometry": {"type": "Point", "coordinates": [65.82061771369308, 8.07439619844866]}}, {"type": "Feature", "properties": {"norad_id": 31157, "name": "FENGYUN 1C DEB", "group": "fengyun-1c-debris", "lat": 9.250644973036632, "lon": 162.64141323965217, "alt_km": 856.6410904351314, "timestamp": "2025-12-24T03:53:29.927785+00:00", "meta": {"OBJECT_NAME": "FENGYUN 1C DEB", "OBJECT_ID": "1999-025BHK", "EPOCH": "2025-12-15T04:42:10.430784", "MEAN_MOTION": 14.22565872, "ECCENTRICITY": 0.01000722, "INCLINATION": 98.4799, "RA_OF_ASC_NODE": 332.6191, "ARG_OF_PERICENTER": 319.3006, "MEAN_ANOMALY": 40.0724, "EPHEMERIS_TYPE": 0, "CLASSIFICATION_TYPE": "U", "NORAD_CAT_ID": 31157, "ELEMENT_SET_NO": 999, "REV_AT_EPOCH": 97018, "BSTAR": 0.00031840475, "MEAN_MOTION_DOT": 7.06e-06, "MEAN_MOTION_DDOT": 0}, "tle": {"line1": "1 31157U 99025BHK 25349.19595406  .00000706  00000+0  31840-3 0  9995", "line2": "2 31157  98.4799 332.6191 0100072 319.3006  40.0724 14.22565872970186"}}, "geometry": {"type": "Point", "coordinates": [162.64141323965217, 9.250644973036632]}}, {"type": "Feature", "properties": {"norad_id": 31158, "name": "FENGYUN 1C DEB", "group": "fengyun-1c-debris", "lat": 61.054128529105085, "lon": 60.74865869040732, "alt_km": 758.8189212257794, "timestamp": "2025-12-24T03:53:29.927795+00:00", "meta": {"OBJECT_NAME": "FENGYUN 1C DEB", "OBJECT_ID": "1999-025BHL", "EPOCH": "2025-12-21T11:56:21.493536", "MEAN_MOTION": 14.33299733, "ECCENTRICITY": 0.00468097, "INCLINATION": 98.7797, "RA_OF_ASC_NODE": 74.2735, "ARG_OF_PERICENTER": 8.2217, "MEAN_ANOMALY": 351.9724, "EPHEMERIS_TYPE": 0, "CLASSIFICATION_TYPE": "U", "NORAD_CAT_ID": 31158, "ELEMENT_SET_NO": 999, "REV_AT_EPOCH": 64605, "BSTAR": 0.0012542591, "MEAN_MOTION_DOT": 3.451e-05, "MEAN_MOTION_DDOT": 0}, "tle": {"line1": "1 31158U 99025BHL 25355.49747099  .00003451  00000+0  12543-2 0  9991", "line2": "2 31158  98.7797  74.2735 0046809   8.2217 351.9724 14.33299733646058"}}, "geometry": {"type": "Point", "coordinates": [60.74865869040732, 61.054128529105085]}}, {"type": "Feature", "properties": {"norad_id": 31159, "name": "FENGYUN 1C DEB", "group": "fengyun-1c-debris", "lat": -46.5453287466137, "lon": 130.18364762198553, "alt_km": 472.3645707532187, "timestamp": "2025-12-24T03:53:29.927805+00:00", "meta": {"OBJECT_NAME": "FENGYUN 1C DEB", "OBJECT_ID": "1999-025BHM", "EPOCH": "2025-12-22T16:35:21.713856", "MEAN_MOTION": 15.39691741, "ECCENTRICITY": 0.01068816, "INCLINATION": 97.8001, "RA_OF_ASC_NODE": 316.9354, "ARG_OF_PERICENTER": 338.1431, "MEAN_ANOMALY": 21.5271, "EPHEMERIS_TYPE": 0, "CLASSIFICATION_TYPE": "U", "NORAD_CAT_ID": 31159, "ELEMENT_SET_NO": 999, "REV_AT_EPOCH": 99706, "BSTAR": 0.0015469432, "MEAN_MOTION_DOT": 0.00075209, "MEAN_MOTION_DDOT": 0}, "tle": {"line1": "1 31159U 99025BHM 25356.69122354  .00075209  00000+0  15469-2 0  9996", "line2": "2 31159  97.8001 316.9354 0106881 338.1431  21.5271 15.39691741997069"}}, "geometry": {"type": "Point", "coordinates": [130.18364762198553, -46.5453287466137]}}, {"type": "Feature", "properties": {"norad_id": 31160, "name": "FENGYUN 1C DEB", "group": "fengyun-1c-debris", "lat": -41.71452384274234, "lon": -133.84613676163042, "alt_km": 860.0214358273715, "timestamp": "2025-12-24T03:53:29.927816+00:00", "meta": {"OBJECT_NAME": "FENGYUN 1C DEB", "OBJECT_ID": "1999-025BHN", "EPOCH": "2025-12-20T09:36:45.685728", "MEAN_MOTION": 13.99593742, "ECCENTRICITY": 0.00573532, "INCLINATION": 99.0842, "RA_OF_ASC_NODE": 50.6217, "ARG_OF_PERICENTER": 234.6128, "MEAN_ANOMALY": 124.967, "EPHEMERIS_TYPE": 0, "CLASSIFICATION_TYPE": "U", "NORAD_CAT_ID": 31160, "ELEMENT_SET_NO": 999, "REV_AT_EPOCH": 69706, "BSTAR": -3.919179e-05, "MEAN_MOTION_DOT": -1.03e-06, "MEAN_MOTION_DDOT": 0}, "tle": {"line1": "1 31160U 99025BHN 25354.40052877 -.00000103  00000+0 -39192-4 0  9991", "line2": "2 31160  99.0842  50.6217 0057353 234.6128 124.9670 13.99593742697064"}}, "geometry": {"type": "Point", "coordinates": [-133.84613676163042, -41.71452384274234]}}, {"type": "Feature", "properties": {"norad_id": 31161, "name": "FENGYUN 1C DEB", "group": "fengyun-1c-debris", "lat": -55.82640103294657, "lon": 32.524461753399386, "alt_km": 821.2208369155323, "timestamp": "2025-12-24T03:53:29.927826+00:00", "meta": {"OBJECT_NAME": "FENGYUN 1C DEB", "OBJECT_ID": "1999-025BHP", "EPOCH": "2025-12-23T19:38:15.715680", "MEAN_MOTION": 14.09262541, "ECCENTRICITY": 0.0067942, "INCLINATION": 98.7477, "RA_OF_ASC_NODE": 19.0826, "ARG_OF_PERICENTER": 318.5499, "MEAN_ANOMALY": 41.0529, "EPHEMERIS_TYPE": 0, "CLASSIFICATION_TYPE": "U", "NORAD_CAT_ID": 31161, "ELEMENT_SET_NO": 999, "REV_AT_EPOCH": 96258, "BSTAR": 0.00024236, "MEAN_MOTION_DOT": 3.87e-06, "MEAN_MOTION_DDOT": 0}, "tle": {"line1": "1 31161U 99025BHP 25357.81823745  .00000387  00000+0  24236-3 0  9994", "line2": "2 31161  98.7477  19.0826 0067942 318.5499  41.0529 14.09262541962584"}}, "geometry": {"type": "Point", "coordinates": [32.524461753399386, -55.82640103294657]}}, {"type": "Feature", "properties": {"norad_id": 31165, "name": "FENGYUN 1C DEB", "group": "fengyun-1c-debris", "lat": -81.08967424871125, "lon": 145.0666065812623, "alt_km": 648.6225960128768, "timestamp": "2025-12-24T03:53:29.927836+00:00", "meta": {"OBJECT_NAME": "FENGYUN 1C DEB", "OBJECT_ID": "1999-025BHT", "EPOCH": "2025-12-22T10:09:25.056288", "MEAN_MOTION": 14.71190217, "ECCENTRICITY": 0.00695373, "INCLINATION": 98.884, "RA_OF_ASC_NODE": 57.0885, "ARG_OF_PERICENTER": 204.5781, "MEAN_ANOMALY": 220.6474, "EPHEMERIS_TYPE": 0, "CLASSIFICATION_TYPE": "U", "NORAD_CAT_ID": 31165, "ELEMENT_SET_NO": 999, "REV_AT_EPOCH": 98897, "BSTAR": 0.0013155503, "MEAN_MOTION_DOT": 8.363e-05, "MEAN_MOTION_DDOT": 0}, "tle": {"line1": "1 31165U 99025BHT 25356.42320667  .00008363  00000+0  13156-2 0  9999", "line2": "2 31165  98.8840  57.0885 0069537 204.5781 220.6474 14.71190217988974"}}, "geometry": {"type": "Point", "coordinates": [145.0666065812623, -81.08967424871125]}}]}